{
  "amenity/restaurant|100 Montaditos": {
    "count": 60,
    "tags": {
      "amenity": "restaurant",
      "brand": "100 Montaditos",
      "brand:wikidata": "Q8355805",
      "brand:wikipedia": "en:Cervecería 100 Montaditos",
      "name": "100 Montaditos"
    }
  },
  "amenity/restaurant|ASK Italian": {
    "countryCodes": ["gb"],
    "nocount": true,
    "tags": {
      "amenity": "restaurant",
      "brand": "ASK Italian",
      "brand:wikidata": "Q4807056",
      "brand:wikipedia": "en:ASK Italian",
      "cuisine": "italian",
      "name": "ASK Italian"
    }
  },
  "amenity/restaurant|Applebee's": {
    "count": 101,
    "match": [
      "amenity/restaurant|Applebee's Bar & Grill",
      "amenity/restaurant|Applebee's Bar + Grill",
      "amenity/restaurant|Applebee's Bar and Grill",
      "amenity/restaurant|Applebee's Grill + Bar",
      "amenity/restaurant|Applebee's Grill and Bar",
      "amenity/restaurant|Applebee's Neighborhood Grill & Bar",
      "amenity/restaurant|Applebees",
      "amenity/restaurant|Applebees Bar & Grill",
      "amenity/restaurant|Applebees Bar + Grill",
      "amenity/restaurant|Applebees Grill + Bar",
      "amenity/restaurant|Applebees Grill and Bar",
      "amenity/restaurant|Applebee’s Neighborhood Grill & Bar"
    ],
    "tags": {
      "amenity": "restaurant",
      "brand": "Applebee's Neighborhood Grill & Bar",
      "brand:wikidata": "Q621532",
      "brand:wikipedia": "en:Applebee's",
      "cuisine": "american",
      "name": "Applebee's",
      "official_name": "Applebee's Neighborhood Grill & Bar"
    }
  },
  "amenity/restaurant|Autogrill": {
    "count": 69,
    "tags": {
      "amenity": "restaurant",
      "brand": "Autogrill",
      "brand:wikidata": "Q786790",
      "brand:wikipedia": "en:Autogrill",
      "name": "Autogrill"
    }
  },
  "amenity/restaurant|Bella Italia": {
    "count": 216,
    "countryCodes": ["gb"],
    "tags": {
      "amenity": "restaurant",
      "brand": "Bella Italia",
      "brand:wikidata": "Q4883362",
      "brand:wikipedia": "en:Bella Italia",
      "name": "Bella Italia"
    }
  },
  "amenity/restaurant|Big Boy": {
    "count": 72,
    "tags": {
      "amenity": "restaurant",
      "brand": "Big Boy",
      "brand:wikidata": "Q4386779",
      "brand:wikipedia": "en:Big Boy Restaurants",
      "cuisine": "burger",
      "name": "Big Boy"
    }
  },
  "amenity/restaurant|Black Bear Diner": {
    "count": 58,
    "countryCodes": ["us"],
    "tags": {
      "amenity": "restaurant",
      "brand": "Black Bear Diner",
      "brand:wikidata": "Q4920343",
      "brand:wikipedia": "en:Black Bear Diner",
      "cuisine": "american",
      "name": "Black Bear Diner"
    }
  },
  "amenity/restaurant|Blaze Pizza": {
    "count": 59,
    "tags": {
      "amenity": "restaurant",
      "name": "Blaze Pizza"
    }
  },
  "amenity/restaurant|Bob Evans": {
    "count": 358,
    "countryCodes": ["us"],
    "tags": {
      "amenity": "restaurant",
      "brand": "Bob Evans",
      "brand:wikidata": "Q4932386",
      "brand:wikipedia": "en:Bob Evans Restaurants",
      "cuisine": "american",
      "name": "Bob Evans"
    }
  },
  "amenity/restaurant|Bonefish Grill": {
    "count": 95,
    "countryCodes": ["us"],
    "tags": {
      "amenity": "restaurant",
      "brand": "Bonefish Grill",
      "brand:wikidata": "Q4941599",
      "brand:wikipedia": "en:Bonefish Grill",
      "cuisine": "seafood",
      "name": "Bonefish Grill"
    }
  },
  "amenity/restaurant|Boston Pizza": {
    "count": 321,
    "tags": {
      "amenity": "restaurant",
      "brand": "Boston Pizza",
      "brand:wikidata": "Q894578",
      "brand:wikipedia": "en:Boston Pizza",
      "cuisine": "pizza",
      "name": "Boston Pizza"
    }
  },
  "amenity/restaurant|Buffalo Grill": {
    "count": 312,
    "tags": {
      "amenity": "restaurant",
      "brand": "Buffalo Grill",
      "brand:wikidata": "Q944655",
      "brand:wikipedia": "en:Buffalo Grill",
      "cuisine": "steak_house",
      "name": "Buffalo Grill"
    }
  },
  "amenity/restaurant|Buffalo Wild Wings": {
    "count": 650,
    "tags": {
      "amenity": "restaurant",
      "brand": "Buffalo Wild Wings",
      "brand:wikidata": "Q509255",
      "brand:wikipedia": "en:Buffalo Wild Wings",
      "cuisine": "wings",
      "name": "Buffalo Wild Wings"
    }
  },
  "amenity/restaurant|Cafe Rio": {
    "count": 54,
    "countryCodes": ["us"],
    "tags": {
      "amenity": "restaurant",
      "brand": "Cafe Rio",
      "brand:wikidata": "Q5017108",
      "brand:wikipedia": "en:Cafe Rio",
      "cuisine": "mexican",
      "name": "Cafe Rio"
    }
  },
  "amenity/restaurant|California Pizza Kitchen": {
    "count": 125,
    "tags": {
      "amenity": "restaurant",
      "brand": "California Pizza Kitchen",
      "brand:wikidata": "Q15109854",
      "brand:wikipedia": "en:California Pizza Kitchen",
      "cuisine": "pizza",
      "name": "California Pizza Kitchen"
    }
  },
  "amenity/restaurant|Campanile": {
    "count": 66,
    "tags": {
      "amenity": "restaurant",
      "brand": "Campanile",
      "name": "Campanile"
    }
  },
  "amenity/restaurant|Carluccio's": {
    "count": 61,
    "tags": {
      "amenity": "restaurant",
      "brand": "Carluccio's",
      "brand:wikidata": "Q25111797",
      "brand:wikipedia": "en:Carluccio's Ltd",
      "cuisine": "italian",
      "name": "Carluccio's"
    }
  },
  "amenity/restaurant|Carrabba's Italian Grill": {
    "count": 72,
    "countryCodes": ["us"],
    "tags": {
      "amenity": "restaurant",
      "brand": "Carrabba's Italian Grill",
      "brand:wikidata": "Q5045999",
      "brand:wikipedia": "en:Carrabba's Italian Grill",
      "cuisine": "italian",
      "name": "Carrabba's Italian Grill"
    }
  },
  "amenity/restaurant|Casino": {
    "count": 51,
    "tags": {
      "amenity": "restaurant",
      "name": "Casino"
    }
  },
  "amenity/restaurant|Cheesecake Factory": {
    "count": 61,
    "tags": {
      "amenity": "restaurant",
      "brand": "Cheesecake Factory",
      "brand:wikidata": "Q1045842",
      "brand:wikipedia": "en:The Cheesecake Factory",
      "cuisine": "american",
      "name": "Cheesecake Factory"
    }
  },
  "amenity/restaurant|Chevys": {
    "match": ["amenity/fast_food|Chevys"],
    "nocount": true,
    "tags": {
      "amenity": "restaurant",
      "brand": "Chevys Fresh Mex",
      "brand:wikidata": "Q5094466",
      "brand:wikipedia": "en:Chevys Fresh Mex",
      "cuisine": "mexican",
      "name": "Chevys",
      "official_name": "Chevys Fresh Mex"
    }
  },
  "amenity/restaurant|Chifa": {
    "count": 116,
    "tags": {
      "amenity": "restaurant",
      "brand": "Chifa",
      "name": "Chifa"
    }
  },
  "amenity/restaurant|Chili's": {
    "count": 772,
    "match": [
      "amenity/restaurant|Chili's Grill & Bar"
    ],
    "tags": {
      "amenity": "restaurant",
      "brand": "Chili's",
      "brand:wikidata": "Q1072948",
      "brand:wikipedia": "en:Chili's",
      "cuisine": "tex-mex",
      "name": "Chili's"
    }
  },
  "amenity/restaurant|Chiquito": {
    "count": 61,
    "countryCodes": ["gb"],
    "tags": {
      "amenity": "restaurant",
      "brand": "Chiquito",
      "brand:wikidata": "Q5101775",
      "brand:wikipedia": "en:Chiquito (restaurant)",
      "cuisine": "tex-mex",
      "name": "Chiquito"
    }
  },
  "amenity/restaurant|Chuck E. Cheese's": {
    "count": 98,
    "tags": {
      "amenity": "restaurant",
      "brand": "Chuck E. Cheese's",
      "brand:wikidata": "Q2438391",
      "brand:wikipedia": "en:Chuck E. Cheese's",
      "cuisine": "pizza",
      "name": "Chuck E. Cheese's"
    }
  },
  "amenity/restaurant|Cici's Pizza": {
    "count": 75,
    "countryCodes": ["us"],
    "tags": {
      "amenity": "restaurant",
      "brand": "Cici's Pizza",
      "brand:wikidata": "Q2972189",
      "brand:wikipedia": "en:Cicis",
      "cuisine": "pizza",
      "name": "Cici's Pizza"
    }
  },
  "amenity/restaurant|Claim Jumper": {
    "nocount": true,
    "tags": {
      "amenity": "restaurant",
      "brand": "Claim Jumper",
      "brand:wikidata": "Q5125081",
      "brand:wikipedia": "en:Claim Jumper",
      "cuisine": "american",
      "name": "Claim Jumper",
      "operator": "Landry's",
      "operator:wikidata": "Q3217105",
      "operator:wikipedia": "en:Landry's, Inc."
    }
  },
  "amenity/restaurant|Comedor": {
    "count": 113,
    "tags": {
      "amenity": "restaurant",
      "brand": "Comedor",
      "name": "Comedor"
    }
  },
  "amenity/restaurant|Comida China": {
    "count": 60,
    "tags": {
      "amenity": "restaurant",
      "brand": "Comida China",
      "name": "Comida China"
    }
  },
  "amenity/restaurant|Courtepaille": {
    "count": 185,
    "tags": {
      "amenity": "restaurant",
      "brand": "Courtepaille",
      "brand:wikidata": "Q3116688",
      "brand:wikipedia": "fr:Grill Courtepaille",
      "cuisine": "french",
      "name": "Courtepaille"
    }
  },
  "amenity/restaurant|Cracker Barrel": {
    "count": 430,
    "countryCodes": ["us"],
    "tags": {
      "amenity": "restaurant",
      "brand": "Cracker Barrel",
      "brand:wikidata": "Q4492609",
      "brand:wikipedia": "en:Cracker Barrel",
      "cuisine": "american",
      "name": "Cracker Barrel"
    }
  },
  "amenity/restaurant|Denny's": {
    "count": 993,
    "tags": {
      "amenity": "restaurant",
      "brand": "Denny's",
      "brand:wikidata": "Q1189695",
      "brand:wikipedia": "en:Denny's",
      "cuisine": "american",
      "name": "Denny's"
    }
  },
  "amenity/restaurant|Dickey's Barbecue Pit": {
    "count": 61,
    "countryCodes": ["us"],
    "tags": {
      "amenity": "restaurant",
      "brand": "Dickey's Barbecue Pit",
      "brand:wikidata": "Q19880747",
      "brand:wikipedia": "en:Dickey's Barbecue Pit",
      "cuisine": "barbecue",
      "name": "Dickey's Barbecue Pit"
    }
  },
  "amenity/restaurant|Dolce Vita": {
    "count": 143,
    "tags": {
      "amenity": "restaurant",
      "brand": "Dolce Vita",
      "name": "Dolce Vita"
    }
  },
  "amenity/restaurant|East Side Mario's": {
    "count": 55,
    "tags": {
      "amenity": "restaurant",
      "brand": "East Side Mario's",
      "brand:wikidata": "Q5329375",
      "brand:wikipedia": "en:East Side Mario's",
      "cuisine": "italian",
      "name": "East Side Mario's"
    }
  },
  "amenity/restaurant|Famous Dave's": {
    "count": 68,
    "countryCodes": ["us"],
    "tags": {
      "amenity": "restaurant",
      "brand": "Famous Dave's",
      "brand:wikidata": "Q5433448",
      "brand:wikipedia": "en:Famous Dave's",
      "cuisine": "barbecue",
      "name": "Famous Dave's"
    }
  },
  "amenity/restaurant|First Watch": {
    "count": 51,
    "tags": {
      "amenity": "restaurant",
      "name": "First Watch"
    }
  },
  "amenity/restaurant|Flunch": {
    "count": 180,
    "countryCodes": ["fr"],
    "tags": {
      "amenity": "restaurant",
      "brand": "Flunch",
      "brand:wikidata": "Q629326",
      "brand:wikipedia": "en:Flunch",
      "cuisine": "french",
      "name": "Flunch"
    }
  },
  "amenity/restaurant|Foster's Hollywood": {
    "count": 53,
    "tags": {
      "amenity": "restaurant",
      "brand": "Foster's Hollywood",
      "brand:wikidata": "Q5864366",
      "brand:wikipedia": "en:Foster's Hollywood",
      "cuisine": "american",
      "name": "Foster's Hollywood"
    }
  },
  "amenity/restaurant|Frankie & Benny's": {
    "count": 164,
    "countryCodes": ["gb"],
    "tags": {
      "amenity": "restaurant",
      "brand": "Frankie & Benny's",
      "brand:wikidata": "Q5490892",
      "brand:wikipedia": "en:Frankie & Benny's",
      "cuisine": "italian",
      "name": "Frankie & Benny's"
    }
  },
  "amenity/restaurant|Freshii": {
    "match": ["amenity/fast_food|Freshii"],
    "nocount": true,
    "tags": {
      "amenity": "restaurant",
      "brand": "Freshii",
      "brand:wikidata": "Q5503051",
      "brand:wikipedia": "en:Freshii",
      "cuisine": "salad",
      "name": "Freshii"
    }
  },
  "amenity/restaurant|Friendly's": {
    "count": 127,
    "countryCodes": ["us"],
    "tags": {
      "amenity": "restaurant",
      "brand": "Friendly's",
      "brand:wikidata": "Q1464513",
      "brand:wikipedia": "en:Friendly's",
      "cuisine": "american",
      "name": "Friendly's"
    }
  },
  "amenity/restaurant|Fuddruckers": {
    "count": 58,
    "tags": {
      "amenity": "restaurant",
      "brand": "Fuddruckers",
      "brand:wikidata": "Q5507056",
      "brand:wikipedia": "en:Fuddruckers",
      "cuisine": "burger",
      "name": "Fuddruckers"
    }
  },
  "amenity/restaurant|Garba": {
    "count": 51,
    "tags": {
      "amenity": "restaurant",
      "name": "Garba"
    }
  },
  "amenity/restaurant|Garbadrome": {
    "count": 469,
    "tags": {
      "amenity": "restaurant",
      "name": "Garbadrome"
    }
  },
  "amenity/restaurant|Godfather's Pizza": {
    "count": 51,
    "tags": {
      "amenity": "restaurant",
      "name": "Godfather's Pizza"
    }
  },
  "amenity/restaurant|Golden Corral": {
    "count": 261,
    "countryCodes": ["us"],
    "tags": {
      "amenity": "restaurant",
      "brand": "Golden Corral",
      "brand:wikidata": "Q4039560",
      "brand:wikipedia": "en:Golden Corral",
      "cuisine": "american",
      "name": "Golden Corral"
    }
  },
  "amenity/restaurant|Gourmet Burger Kitchen": {
    "count": 56,
    "tags": {
      "amenity": "restaurant",
      "brand": "Gourmet Burger Kitchen",
      "brand:wikidata": "Q5588445",
      "brand:wikipedia": "en:Gourmet Burger Kitchen",
      "cuisine": "burger",
      "name": "Gourmet Burger Kitchen"
    }
  },
  "amenity/restaurant|Gusto": {
    "count": 94,
    "tags": {
      "amenity": "restaurant",
      "brand": "Gusto",
      "name": "Gusto"
    }
  },
  "amenity/restaurant|Hard Rock Cafe": {
    "count": 101,
    "tags": {
      "amenity": "restaurant",
      "brand": "Hard Rock Cafe",
      "brand:wikidata": "Q918151",
      "brand:wikipedia": "en:Hard Rock Cafe",
      "cuisine": "american",
      "name": "Hard Rock Cafe"
    }
  },
  "amenity/restaurant|Harvester": {
    "count": 78,
    "countryCodes": ["gb"],
    "tags": {
      "amenity": "restaurant",
      "brand": "Harvester",
      "brand:wikidata": "Q5676915",
      "brand:wikipedia": "en:Harvester (restaurant)",
      "cuisine": "american",
      "name": "Harvester"
    }
  },
  "amenity/restaurant|Hippopotamus": {
    "count": 108,
    "countryCodes": ["fr"],
    "tags": {
      "amenity": "restaurant",
      "brand": "Hippopotamus",
      "brand:wikidata": "Q3136174",
      "brand:wikipedia": "fr:Hippopotamus (restaurant)",
      "cuisine": "steak_house",
      "name": "Hippopotamus"
    }
  },
  "amenity/restaurant|Hooters": {
    "count": 224,
    "tags": {
      "amenity": "restaurant",
      "brand": "Hooters",
      "brand:wikidata": "Q1025921",
      "brand:wikipedia": "en:Hooters",
      "cuisine": "burger",
      "name": "Hooters"
    }
  },
  "amenity/restaurant|Huddle House": {
    "count": 75,
    "countryCodes": ["us"],
    "tags": {
      "amenity": "restaurant",
      "brand": "Huddle House",
      "brand:wikidata": "Q5928324",
      "brand:wikipedia": "en:Huddle House",
      "cuisine": "american",
      "name": "Huddle House"
    }
  },
  "amenity/restaurant|IHOP": {
    "count": 923,
    "tags": {
      "amenity": "restaurant",
      "brand": "IHOP",
      "brand:wikidata": "Q1185675",
      "brand:wikipedia": "en:IHOP",
      "cuisine": "pancake",
      "name": "IHOP"
    }
  },
  "amenity/restaurant|IL Патио": {
    "count": 118,
    "tags": {
      "amenity": "restaurant",
      "brand": "IL Патио",
      "brand:wikidata": "Q4397763",
      "brand:wikipedia": "en:Росинтер",
      "cuisine": "american",
      "name": "IL Патио"
    }
  },
  "amenity/restaurant|Il Giardino": {
    "count": 51,
    "tags": {
      "amenity": "restaurant",
      "name": "Il Giardino"
    }
  },
  "amenity/restaurant|Jason's Deli": {
    "count": 87,
    "countryCodes": ["us"],
    "tags": {
      "amenity": "restaurant",
      "brand": "Jason's Deli",
      "brand:wikidata": "Q16997641",
      "brand:wikipedia": "en:Jason's Deli",
      "cuisine": "sandwich",
      "name": "Jason's Deli"
    }
  },
  "amenity/restaurant|Jet's Pizza": {
    "count": 58,
    "countryCodes": ["us"],
    "tags": {
      "amenity": "restaurant",
      "brand": "Jet's Pizza",
      "brand:wikidata": "Q16997713",
      "brand:wikipedia": "en:Jet's Pizza",
      "cuisine": "pizza",
      "name": "Jet's Pizza"
    }
  },
  "amenity/restaurant|Joe's Crab Shack": {
    "count": 71,
    "countryCodes": ["us"],
    "tags": {
      "amenity": "restaurant",
      "brand": "Joe's Crab Shack",
      "brand:wikidata": "Q6208210",
      "brand:wikipedia": "en:Joe's Crab Shack",
      "cuisine": "seafood",
      "name": "Joe's Crab Shack"
    }
  },
  "amenity/restaurant|Johnny Carino’s": {
    "countryCodes": ["us"],
    "match": ["amenity/restaurant|Carinio's"],
    "nocount": true,
    "tags": {
      "amenity": "restaurant",
      "brand": "Johnny Carino’s",
      "brand:wikidata": "Q5039637",
      "brand:wikipedia": "en:Carino's Italian",
      "cuisine": "italian",
      "name": "Johnny Carino’s"
    }
  },
  "amenity/restaurant|Johnny Rockets": {
    "count": 51,
    "tags": {
      "amenity": "restaurant",
      "name": "Johnny Rockets"
    }
  },
  "amenity/restaurant|Kelsey's": {
    "count": 65,
    "countryCodes": ["ca"],
    "tags": {
      "amenity": "restaurant",
      "brand": "Kelsey's",
      "brand:wikidata": "Q6386459",
      "brand:wikipedia": "en:Kelseys Original Roadhouse",
      "cuisine": "american",
      "name": "Kelsey's"
    }
  },
  "amenity/restaurant|Kudu": {
    "count": 169,
    "countryCodes": ["sa"],
    "tags": {
      "amenity": "restaurant",
      "brand": "Kudu",
      "brand:wikidata": "Q6441777",
      "brand:wikipedia": "en:Kudu (restaurant)",
      "cuisine": "sandwich",
      "name": "Kudu"
    }
  },
  "amenity/restaurant|Le Bistrot": {
    "count": 57,
    "tags": {
      "amenity": "restaurant",
      "brand": "Le Bistrot",
      "name": "Le Bistrot"
    }
  },
  "amenity/restaurant|Lemongrass": {
    "count": 54,
    "tags": {
      "amenity": "restaurant",
      "name": "Lemongrass"
    }
  },
  "amenity/restaurant|Little India": {
    "count": 53,
    "tags": {
      "amenity": "restaurant",
      "name": "Little India"
    }
  },
  "amenity/restaurant|Little Italy": {
    "count": 103,
    "tags": {
      "amenity": "restaurant",
      "name": "Little Italy"
    }
  },
  "amenity/restaurant|Logan's Roadhouse": {
    "count": 114,
    "countryCodes": ["us"],
    "tags": {
      "amenity": "restaurant",
      "brand": "Logan's Roadhouse",
      "brand:wikidata": "Q6666872",
      "brand:wikipedia": "en:Logan's Roadhouse",
      "cuisine": "america",
      "name": "Logan's Roadhouse"
    }
  },
  "amenity/restaurant|LongHorn Steakhouse": {
    "count": 102,
    "match": [
      "amenity/restaurant|Longhorn Steakhouse"
    ],
    "tags": {
      "amenity": "restaurant",
      "brand": "LongHorn Steakhouse",
      "brand:wikidata": "Q3259007",
      "brand:wikipedia": "en:LongHorn Steakhouse",
      "cuisine": "steak_house",
      "name": "LongHorn Steakhouse"
    }
  },
  "amenity/restaurant|Los Amigos": {
    "count": 51,
    "tags": {
      "amenity": "restaurant",
      "name": "Los Amigos"
    }
  },
  "amenity/restaurant|Loving Hut": {
    "count": 53,
    "tags": {
      "amenity": "restaurant",
      "brand": "Loving Hut",
      "brand:wikidata": "Q3491655",
      "brand:wikipedia": "en:Loving Hut",
      "name": "Loving Hut"
    }
  },
  "amenity/restaurant|Léon de Bruxelles": {
    "count": 69,
    "countryCodes": ["fr"],
    "tags": {
      "amenity": "restaurant",
      "brand": "Léon de Bruxelles",
      "brand:wikidata": "Q21041507",
      "brand:wikipedia": "en:Léon de Bruxelles",
      "cuisine": "friture",
      "name": "Léon de Bruxelles"
    }
  },
  "amenity/restaurant|MK Restaurants": {
    "count": 69,
    "tags": {
      "amenity": "restaurant",
      "brand": "MK Restaurants",
      "cuisine": "thai",
      "name": "MK Restaurants"
    }
  },
  "amenity/restaurant|MOD Pizza": {
    "count": 70,
    "tags": {
      "amenity": "restaurant",
      "brand": "MOD Pizza",
      "brand:wikidata": "Q19903469",
      "brand:wikipedia": "en:MOD Pizza",
      "cuisine": "pizza",
      "name": "MOD Pizza"
    }
  },
  "amenity/restaurant|Marco's Pizza": {
    "count": 98,
    "tags": {
      "amenity": "restaurant",
      "brand": "Marco's Pizza",
      "brand:wikidata": "Q6757382",
      "brand:wikipedia": "en:Marco's Pizza",
      "cuisine": "pizza",
      "name": "Marco's Pizza"
    }
  },
  "amenity/restaurant|Max's Restaurant": {
    "count": 53,
    "countryCodes": ["ph"],
    "match": [
      "amenity/restaurant|Max's of Manila"
    ],
    "tags": {
      "amenity": "restaurant",
      "brand": "Max's Restaurant",
      "brand:wikidata": "Q6794477",
      "brand:wikipedia": "en:Max's of Manila",
      "cuisine": "asian",
      "name": "Max's Restaurant"
    }
  },
  "amenity/restaurant|McAlister's Deli": {
    "count": 89,
    "tags": {
      "amenity": "restaurant",
      "brand": "McAlister's Deli",
      "brand:wikidata": "Q17020829",
      "brand:wikipedia": "en:McAlister's Deli",
      "cuisine": "sandwich",
      "name": "McAlister's Deli"
    }
  },
  "amenity/restaurant|Mellow Mushroom": {
    "count": 98,
    "countryCodes": ["us"],
    "tags": {
      "amenity": "restaurant",
      "brand": "Mellow Mushroom",
      "brand:wikidata": "Q17021360",
      "brand:wikipedia": "en:Mellow Mushroom",
      "cuisine": "pizza",
      "name": "Mellow Mushroom"
    }
  },
  "amenity/restaurant|Mimi's Cafe": {
    "countryCodes": ["us"],
    "nocount": true,
    "tags": {
      "amenity": "restaurant",
      "brand": "Mimi's Cafe",
      "brand:wikidata": "Q17022081",
      "brand:wikipedia": "en:Mimi's Cafe",
      "cuisine": "french",
      "name": "Mimi's Cafe"
    }
  },
  "amenity/restaurant|Nando's": {
    "count": 421,
    "match": [
      "amenity/fast_food|Nando's",
      "amenity/fast_food|Nandos",
      "amenity/restaurant|Nandos"
    ],
    "tags": {
      "amenity": "restaurant",
      "brand": "Nando's",
      "brand:wikidata": "Q3472954",
      "brand:wikipedia": "en:Nando's",
      "cuisine": "chicken;portuguese",
      "name": "Nando's"
    }
  },
  "amenity/restaurant|New China": {
    "count": 52,
    "tags": {
      "amenity": "restaurant",
      "name": "New China"
    }
  },
  "amenity/restaurant|Noodles & Company": {
    "count": 143,
    "countryCodes": ["us"],
    "tags": {
      "amenity": "restaurant",
      "brand": "Noodles & Company",
      "brand:wikidata": "Q7049673",
      "brand:wikipedia": "en:Noodles & Company",
      "cuisine": "pasta",
      "name": "Noodles & Company"
    }
  },
  "amenity/restaurant|Nordsee": {
    "count": 51,
    "tags": {
      "amenity": "restaurant",
      "name": "Nordsee"
    }
  },
  "amenity/restaurant|Norky's": {
    "count": 56,
    "tags": {
      "amenity": "restaurant",
      "brand": "Norky's",
      "cuisine": "peruvian",
      "name": "Norky's"
    }
  },
  "amenity/restaurant|O'Charley's": {
    "count": 74,
    "countryCodes": ["us"],
    "tags": {
      "amenity": "restaurant",
      "brand": "O'Charley's",
      "brand:wikidata": "Q7071703",
      "brand:wikipedia": "en:O'Charley's",
      "cuisine": "american",
      "name": "O'Charley's"
    }
  },
  "amenity/restaurant|Ocean Basket": {
    "count": 85,
    "countryCodes": ["za"],
    "tags": {
      "amenity": "restaurant",
      "brand": "Ocean Basket",
      "cuisine": "seafood",
      "name": "Ocean Basket"
    }
  },
  "amenity/restaurant|Old Chicago": {
    "count": 59,
    "countryCodes": ["us"],
    "match": [
      "Old Chicago Pizza",
      "Old Chicago Pizza & Taproom",
      "Old Chicago Pizza and Taproom",
      "Old Chicago Pizzaria"
    ],
    "tags": {
      "amenity": "restaurant",
      "brand": "Old Chicago",
      "brand:wikidata": "Q5180522",
      "brand:wikipedia": "en:CraftWorks Restaurants & Breweries",
      "cuisine": "pizza",
      "name": "Old Chicago"
    }
  },
  "amenity/restaurant|Old Wild West": {
    "count": 62,
    "countryCodes": ["it"],
    "tags": {
      "amenity": "restaurant",
      "brand": "Old Wild West",
      "brand:wikidata": "Q25402475",
      "brand:wikipedia": "it:Old Wild West",
      "cuisine": "american",
      "name": "Old Wild West"
    }
  },
  "amenity/restaurant|Olive Garden": {
    "count": 620,
    "tags": {
      "amenity": "restaurant",
      "brand": "Olive Garden",
      "brand:wikidata": "Q3045312",
      "brand:wikipedia": "en:Olive Garden",
      "cuisine": "italian",
      "name": "Olive Garden"
    }
  },
  "amenity/restaurant|Outback Steakhouse": {
    "count": 479,
    "tags": {
      "amenity": "restaurant",
      "brand": "Outback Steakhouse",
      "brand:wikidata": "Q1064893",
      "brand:wikipedia": "en:Outback Steakhouse",
      "cuisine": "american",
      "name": "Outback Steakhouse"
    }
  },
  "amenity/restaurant|P.F. Chang's": {
    "count": 72,
    "tags": {
      "amenity": "restaurant",
      "brand": "P.F. Chang's",
      "brand:wikidata": "Q5360181",
      "brand:wikipedia": "en:P. F. Chang's China Bistro",
      "cuisine": "asian",
      "name": "P.F. Chang's"
    }
  },
  "amenity/restaurant|Pardos Chicken": {
    "match": [
      "amenity/fast_food|Pardo's Chicken",
      "amenity/fast_food|Pardos chicken",
      "amenity/restaurant|Pardo's Chicken"
    ],
    "nocount": true,
    "tags": {
      "amenity": "restaurant",
      "brand": "Pardos Chicken",
      "brand:wikidata": "Q17624435",
      "brand:wikipedia": "en:Pardos chicken",
      "cuisine": "peruvian",
      "name": "Pardos Chicken"
    }
  },
  "amenity/restaurant|Parrilla": {
    "count": 70,
    "tags": {
      "amenity": "restaurant",
      "brand": "Parrilla",
      "name": "Parrilla"
    }
  },
  "amenity/restaurant|Pei Wei": {
    "count": 61,
    "match": [
      "amenity/restaurant|Pei Wei Asian Diner"
    ],
    "tags": {
      "amenity": "restaurant",
      "brand": "Pei Wei",
      "brand:wikidata": "Q7160898",
      "brand:wikipedia": "en:Pei Wei Asian Diner",
      "cuisine": "asian",
      "name": "Pei Wei"
    }
  },
  "amenity/restaurant|Perkins": {
    "count": 185,
    "countryCodes": ["us"],
    "tags": {
      "amenity": "restaurant",
      "brand": "Perkins",
      "brand:wikidata": "Q7169056",
      "brand:wikipedia": "en:Perkins Restaurant and Bakery",
      "cuisine": "american",
      "name": "Perkins"
    }
  },
  "amenity/restaurant|Pieology Pizzeria": {
    "countryCodes": ["us"],
    "match": [
      "amenity/fast_food|Pieology",
      "amenity/fast_food|Pieology Pizzeria"
    ],
    "nocount": true,
    "tags": {
      "amenity": "restaurant",
      "brand": "Pieology Pizzeria",
      "brand:wikidata": "Q60746053",
      "brand:wikipedia": "en:Pieology",
      "cuisine": "pizza",
      "name": "Pieology Pizzeria"
    }
  },
  "amenity/restaurant|Pizza Factory": {
    "count": 69,
    "countryCodes": ["us"],
    "tags": {
      "amenity": "restaurant",
      "brand": "Pizza Factory",
      "brand:wikidata": "Q39054369",
      "brand:wikipedia": "en:Pizza Factory",
      "cuisine": "pizza",
      "name": "Pizza Factory"
    }
  },
  "amenity/restaurant|Pizza Hut": {
    "count": 3278,
    "nomatch": [
      "amenity/fast_food|Pizza Hut Express"
    ],
    "tags": {
      "amenity": "restaurant",
      "brand": "Pizza Hut",
      "brand:wikidata": "Q191615",
      "brand:wikipedia": "en:Pizza Hut",
      "cuisine": "pizza",
      "name": "Pizza Hut"
    }
  },
  "amenity/restaurant|Pizza King": {
    "count": 54,
    "tags": {
      "amenity": "restaurant",
      "name": "Pizza King"
    }
  },
  "amenity/restaurant|Pizza Ranch": {
    "count": 101,
    "countryCodes": ["us"],
    "tags": {
      "amenity": "restaurant",
      "brand": "Pizza Ranch",
      "brand:wikidata": "Q7199978",
      "brand:wikipedia": "en:Pizza Ranch",
      "cuisine": "pizza",
      "name": "Pizza Ranch"
    }
  },
  "amenity/restaurant|PizzaExpress": {
    "match": [
      "amenity/fast_food|Pizza Express",
      "amenity/restaurant|Pizza Express"
    ],
    "nocount": true,
    "tags": {
      "amenity": "restaurant",
      "brand": "PizzaExpress",
      "brand:wikidata": "Q662845",
      "brand:wikipedia": "en:PizzaExpress",
      "cuisine": "pizza",
      "name": "PizzaExpress"
    }
  },
  "amenity/restaurant|Poivre Rouge": {
    "count": 63,
    "countryCodes": ["fr"],
    "tags": {
      "amenity": "restaurant",
      "brand": "Poivre Rouge",
      "brand:wikidata": "Q7316076",
      "brand:wikipedia": "fr:Poivre Rouge (restauration)",
      "cuisine": "french",
      "name": "Poivre Rouge"
    }
  },
  "amenity/restaurant|Prezzo": {
    "count": 151,
    "tags": {
      "amenity": "restaurant",
      "brand": "Prezzo",
      "brand:wikidata": "Q7242489",
      "brand:wikipedia": "en:Prezzo (restaurant)",
      "cuisine": "italian",
      "name": "Prezzo"
    }
  },
  "amenity/restaurant|Red Lobster": {
    "count": 487,
    "tags": {
      "amenity": "restaurant",
      "brand": "Red Lobster",
      "brand:wikidata": "Q846301",
      "brand:wikipedia": "en:Red Lobster",
      "cuisine": "seafood",
      "name": "Red Lobster"
    }
  },
  "amenity/restaurant|Red Robin": {
    "count": 368,
    "tags": {
      "amenity": "restaurant",
      "brand": "Red Robin",
      "brand:wikidata": "Q7304886",
      "brand:wikipedia": "en:Red Robin",
      "cuisine": "burger",
      "name": "Red Robin"
    }
  },
  "amenity/restaurant|Restaurant Universitaire": {
    "count": 61,
    "tags": {
      "amenity": "restaurant",
      "name": "Restaurant Universitaire"
    }
  },
  "amenity/restaurant|Round Table Pizza": {
    "count": 127,
    "countryCodes": ["us"],
    "tags": {
      "amenity": "restaurant",
      "brand": "Round Table Pizza",
      "brand:wikidata": "Q7371139",
      "brand:wikipedia": "en:Round Table Pizza",
      "cuisine": "pizza",
      "name": "Round Table Pizza"
    }
  },
  "amenity/restaurant|Ruby Tuesday": {
    "count": 353,
    "tags": {
      "amenity": "restaurant",
      "brand": "Ruby Tuesday",
      "brand:wikidata": "Q7376400",
      "brand:wikipedia": "en:Ruby Tuesday (restaurant)",
      "cuisine": "america",
      "name": "Ruby Tuesday"
    }
  },
  "amenity/restaurant|Saffron": {
    "count": 52,
    "tags": {
      "amenity": "restaurant",
      "name": "Saffron"
    }
  },
  "amenity/restaurant|Shakey's": {
    "count": 81,
    "tags": {
      "amenity": "restaurant",
      "brand": "Shakey's",
      "brand:wikidata": "Q6134929",
      "brand:wikipedia": "en:Shakey's Pizza",
      "cuisine": "pizza",
      "name": "Shakey's"
    }
  },
  "amenity/restaurant|Shari's": {
    "count": 82,
    "countryCodes": ["us"],
    "tags": {
      "amenity": "restaurant",
      "brand": "Shari's",
      "brand:wikidata": "Q7489612",
      "brand:wikipedia": "en:Shari's Cafe & Pies",
      "cuisine": "american",
      "name": "Shari's"
    }
  },
  "amenity/restaurant|Shoney's": {
    "count": 60,
    "countryCodes": ["us"],
    "tags": {
      "amenity": "restaurant",
      "brand": "Shoney's",
      "brand:wikidata": "Q7500392",
      "brand:wikipedia": "en:Shoney's",
      "cuisine": "american",
      "name": "Shoney's"
    }
  },
  "amenity/restaurant|Sizzler": {
    "count": 95,
    "tags": {
      "amenity": "restaurant",
      "brand": "Sizzler",
      "brand:wikidata": "Q1848822",
      "brand:wikipedia": "en:Sizzler",
      "name": "Sizzler"
    }
  },
  "amenity/restaurant|Skyline Chili": {
    "count": 57,
    "countryCodes": ["us"],
    "tags": {
      "amenity": "restaurant",
      "brand": "Skyline Chili",
      "brand:wikidata": "Q151224",
      "brand:wikipedia": "en:Skyline Chili",
      "cuisine": "american",
      "name": "Skyline Chili"
    }
  },
  "amenity/restaurant|Smitty's": {
    "nocount": true,
    "tags": {
      "amenity": "restaurant",
      "brand": "Smitty's",
      "brand:wikidata": "Q7545728",
      "brand:wikipedia": "en:Smitty's",
      "cuisine": "pancake",
      "name": "Smitty's"
    }
  },
  "amenity/restaurant|Spur": {
    "count": 73,
    "match": [
      "amenity/restaurant|Spur Steak Ranches"
    ],
    "tags": {
      "amenity": "restaurant",
      "brand": "Spur",
      "brand:wikidata": "Q7581546",
      "brand:wikipedia": "en:Spur Steak Ranches",
      "cuisine": "steak_house",
      "name": "Spur"
    }
  },
  "amenity/restaurant|Steak 'n Shake": {
    "count": 151,
    "match": ["amenity/fast_food|Steak 'n Shake"],
    "tags": {
      "amenity": "restaurant",
      "brand": "Steak 'n Shake",
      "brand:wikidata": "Q7605233",
      "brand:wikipedia": "en:Steak 'n Shake",
      "cuisine": "burger",
      "name": "Steak 'n Shake"
    }
  },
  "amenity/restaurant|Sunset Grill": {
    "count": 61,
    "tags": {
      "amenity": "restaurant",
      "brand": "Sunset Grill",
      "brand:wikidata": "Q7641264",
      "brand:wikipedia": "en:Sunset Grill (restaurant)",
      "name": "Sunset Grill"
    }
  },
  "amenity/restaurant|Swiss Chalet": {
    "count": 176,
    "countryCodes": ["ca"],
    "tags": {
      "amenity": "restaurant",
      "brand": "Swiss Chalet",
      "brand:wikidata": "Q2372909",
      "brand:wikipedia": "en:Swiss Chalet",
      "cuisine": "chicken",
      "name": "Swiss Chalet"
    }
  },
  "amenity/restaurant|TGI Friday's": {
    "count": 274,
    "match": [
      "amenity/restaurant|T.G.I. Friday's",
      "amenity/restaurant|TGI Fridays"
    ],
    "tags": {
      "amenity": "restaurant",
      "brand": "TGI Friday's",
      "brand:wikidata": "Q1524184",
      "brand:wikipedia": "en:TGI Fridays",
      "cuisine": "american",
      "name": "TGI Friday's"
    }
  },
  "amenity/restaurant|Texas Roadhouse": {
    "count": 311,
    "tags": {
      "amenity": "restaurant",
      "brand": "Texas Roadhouse",
      "brand:wikidata": "Q7707945",
      "brand:wikipedia": "en:Texas Roadhouse",
      "cuisine": "steak_house",
      "name": "Texas Roadhouse"
    }
  },
  "amenity/restaurant|The Cheesecake Factory": {
    "count": 74,
    "tags": {
      "amenity": "restaurant",
      "brand": "The Cheesecake Factory",
      "brand:wikidata": "Q1045842",
      "brand:wikipedia": "en:The Cheesecake Factory",
      "cuisine": "cake",
      "name": "The Cheesecake Factory"
    }
  },
  "amenity/restaurant|The Keg": {
    "count": 52,
    "tags": {
      "amenity": "restaurant",
      "brand": "The Keg",
      "brand:wikidata": "Q7744066",
      "brand:wikipedia": "en:The Keg",
      "cuisine": "steak_house",
      "name": "The Keg"
    }
  },
  "amenity/restaurant|The Melting Pot": {
    "count": 56,
    "tags": {
      "amenity": "restaurant",
      "name": "The Melting Pot"
    }
  },
  "amenity/restaurant|Toby Carvery": {
    "count": 56,
    "tags": {
      "amenity": "restaurant",
      "brand": "Toby Carvery",
      "brand:wikidata": "Q7811777",
      "brand:wikipedia": "en:Toby Carvery",
      "name": "Toby Carvery"
    }
  },
  "amenity/restaurant|Toks": {
    "count": 51,
    "countryCodes": ["mx"],
    "tags": {
      "amenity": "restaurant",
      "brand": "Toks",
      "brand:wikidata": "Q48835586",
      "brand:wikipedia": "en:Toks",
      "cuisine": "mexican",
      "name": "Toks"
    }
  },
  "amenity/restaurant|Tony Roma's": {
    "count": 68,
    "tags": {
      "amenity": "restaurant",
      "brand": "Tony Roma's",
      "brand:wikidata": "Q2213883",
      "brand:wikipedia": "en:Tony Roma's",
      "cuisine": "barbecue",
      "name": "Tony Roma's"
    }
  },
  "amenity/restaurant|VIPS": {
    "count": 51,
    "tags": {
      "amenity": "restaurant",
      "name": "VIPS"
    }
  },
  "amenity/restaurant|Vapiano": {
    "count": 161,
    "tags": {
      "amenity": "restaurant",
      "brand": "Vapiano",
      "brand:wikidata": "Q506252",
      "brand:wikipedia": "en:Vapiano",
      "cuisine": "italian",
      "name": "Vapiano"
    }
  },
  "amenity/restaurant|Village Inn": {
    "count": 161,
    "countryCodes": ["us"],
    "tags": {
      "amenity": "restaurant",
      "brand": "Village Inn",
      "brand:wikidata": "Q7930659",
      "brand:wikipedia": "en:Village Inn",
      "cuisine": "american",
      "name": "Village Inn"
    }
  },
  "amenity/restaurant|Vips": {
    "count": 149,
    "tags": {
      "amenity": "restaurant",
      "brand": "Vips",
      "brand:wikidata": "Q12599540",
      "brand:wikipedia": "en:VIPS (restaurant)",
      "name": "Vips"
    }
  },
  "amenity/restaurant|Waffle House": {
    "count": 739,
    "countryCodes": ["us"],
    "match": ["amenity/fast_food|Waffle House"],
    "tags": {
      "amenity": "restaurant",
      "brand": "Waffle House",
      "brand:wikidata": "Q1701206",
      "brand:wikipedia": "en:Waffle House",
      "cuisine": "american",
      "name": "Waffle House"
    }
  },
  "amenity/restaurant|Wagamama": {
    "count": 127,
    "tags": {
      "amenity": "restaurant",
      "brand": "Wagamama",
      "brand:wikidata": "Q503715",
      "brand:wikipedia": "en:Wagamama",
      "cuisine": "asian",
      "name": "Wagamama"
    }
  },
  "amenity/restaurant|Wasabi": {
    "count": 85,
    "tags": {
      "amenity": "restaurant",
      "brand": "Wasabi",
      "brand:wikidata": "Q23891278",
      "brand:wikipedia": "en:Wasabi (restaurant)",
      "cuisine": "japanese",
      "name": "Wasabi"
    }
  },
  "amenity/restaurant|White Spot": {
    "count": 56,
    "tags": {
      "amenity": "restaurant",
      "brand": "White Spot",
      "brand:wikidata": "Q7995414",
      "brand:wikipedia": "en:White Spot",
      "cuisine": "burger",
      "name": "White Spot"
    }
  },
  "amenity/restaurant|Wingstop": {
    "count": 55,
    "match": [
      "amenity/fast_food|Wing Stop",
      "amenity/fast_food|Wingstop",
      "amenity/restaurant|Wing Stop"
    ],
    "tags": {
      "amenity": "restaurant",
      "brand": "Wingstop",
      "brand:wikidata": "Q8025339",
      "brand:wikipedia": "en:Wingstop",
      "cuisine": "wings",
      "name": "Wingstop"
    }
  },
  "amenity/restaurant|YO! Sushi": {
    "match": ["amenity/restaurant|Yo! Sushi"],
    "nocount": true,
    "tags": {
      "amenity": "restaurant",
      "brand": "YO! Sushi",
      "brand:wikidata": "Q3105441",
      "brand:wikipedia": "en:YO! Sushi",
      "cuisine": "sushi",
      "name": "YO! Sushi"
    }
  },
  "amenity/restaurant|Zizzi": {
    "count": 116,
    "tags": {
      "amenity": "restaurant",
      "brand": "Zizzi",
      "brand:wikidata": "Q8072944",
      "brand:wikipedia": "en:Zizzi",
      "cuisine": "italian",
      "name": "Zizzi"
    }
  },
  "amenity/restaurant|Евразия": {
    "count": 89,
    "tags": {
      "amenity": "restaurant",
      "brand": "Евразия",
      "name": "Евразия"
    }
  },
  "amenity/restaurant|Планета Суши": {
    "count": 53,
    "tags": {
      "amenity": "restaurant",
      "brand": "Планета Суши",
      "name": "Планета Суши",
      "operator": "Росинтер",
      "operator:wikidata": "Q4397763",
      "operator:wikipedia": "ru:Росинтер"
    }
  },
  "amenity/restaurant|Тануки": {
    "count": 61,
    "tags": {
      "amenity": "restaurant",
      "brand": "Тануки",
      "name": "Тануки"
    }
  },
  "amenity/restaurant|Якитория": {
    "countryCodes": ["ru"],
    "count": 86,
    "tags": {
      "amenity": "restaurant",
      "brand": "Якитория",
      "brand:en": "Yakitoria",
      "brand:wikidata": "Q63109465",
      "cusine": "Japanese",
      "name": "Якитория"
    }
  },
  "amenity/restaurant|いきなり！ステーキ": {
    "countryCodes": ["jp"],
    "match": ["amenity/restaurant|いきなりステーキ"],
    "nocount": true,
    "tags": {
      "amenity": "restaurant",
      "brand": "いきなり！ステーキ",
      "brand:en": "Ikinari Steak",
      "brand:wikidata": "Q21652405",
      "brand:wikipedia": "ja:いきなり！ステーキ",
      "cusine": "steak_house",
      "name": "いきなり！ステーキ",
      "name:en": "Ikinari Steak"
    }
  },
  "amenity/restaurant|はなまるうどん": {
    "count": 69,
    "countryCodes": ["jp"],
    "tags": {
      "amenity": "restaurant",
      "brand": "はなまるうどん",
      "brand:en": "Hanamarūdon",
      "brand:wikidata": "Q11275674",
      "brand:wikipedia": "ja:はなまるうどん",
      "name": "はなまるうどん",
      "name:en": "Hanamarūdon"
    }
  },
  "amenity/restaurant|びっくりドンキー": {
    "count": 152,
    "countryCodes": ["jp"],
    "tags": {
      "amenity": "restaurant",
      "brand": "びっくりドンキー",
      "brand:en": "Bikkuri Donkey",
      "brand:wikidata": "Q11276815",
      "brand:wikipedia": "ja:びっくりドンキー",
      "name": "びっくりドンキー",
      "name:en": "Bikkuri Donkey"
    }
  },
  "amenity/restaurant|やよい軒": {
    "count": 102,
    "countryCodes": ["jp"],
    "tags": {
      "amenity": "restaurant",
      "brand": "やよい軒",
      "brand:en": "YAYOI",
      "brand:wikidata": "Q11280577",
      "brand:wikipedia": "ja:やよい軒",
      "name": "やよい軒",
      "name:en": "YAYOI"
    }
  },
  "amenity/restaurant|カプリチョーザ": {
    "countryCodes": ["jp"],
    "nocount": true,
    "tags": {
      "amenity": "restaurant",
      "brand": "カプリチョーザ",
      "brand:en": "Capricciosa",
      "brand:wikidata": "Q11294660",
      "brand:wikipedia": "ja:カプリチョーザ",
      "cusine": "italian",
      "name": "カプリチョーザ",
      "name:en": "Capricciosa",
      "operator": "株式会社伊太利亜飯店華婦里蝶座",
      "operator:en": "Italia-Hanten Capricciosa Co., Ltd"
    }
  },
  "amenity/restaurant|ガスト": {
    "count": 623,
    "countryCodes": ["jp"],
    "tags": {
      "amenity": "restaurant",
      "brand": "ガスト",
      "brand:en": "Gusto",
      "brand:wikidata": "Q11253593",
      "brand:wikipedia": "ja:すかいらーく",
      "name": "ガスト",
      "name:en": "Gusto"
    }
  },
  "amenity/restaurant|ココス": {
    "count": 184,
    "countryCodes": ["jp"],
    "tags": {
      "amenity": "restaurant",
      "brand": "ココス",
      "brand:en": "Coco's",
      "brand:wikidata": "Q11301951",
      "brand:wikipedia": "ja:ココスジャパン",
      "name": "ココス",
      "name:en": "Coco's"
    }
  },
  "amenity/restaurant|サイゼリヤ": {
    "count": 616,
    "countryCodes": ["jp"],
    "tags": {
      "amenity": "restaurant",
      "brand": "サイゼリヤ",
      "brand:en": "Saizeriya",
      "brand:wikidata": "Q886564",
      "brand:wikipedia": "en:Saizeriya",
      "name": "サイゼリヤ",
      "name:en": "Saizeriya"
    }
  },
  "amenity/restaurant|ジョイフル": {
    "count": 136,
    "countryCodes": ["jp"],
    "tags": {
      "amenity": "restaurant",
      "brand": "ジョイフル",
      "brand:en": "Joyfull",
      "brand:wikidata": "Q11310517",
      "brand:wikipedia": "ja:ジョイフル",
      "name": "ジョイフル",
      "name:en": "Joyfull"
    }
  },
  "amenity/restaurant|ジョナサン": {
    "count": 174,
    "countryCodes": ["jp"],
    "tags": {
      "amenity": "restaurant",
      "brand": "ジョナサン",
      "brand:en": "Jonathan's",
      "brand:wikidata": "Q11310628",
      "brand:wikipedia": "ja:ジョナサン (ファミリーレストラン)",
      "name": "ジョナサン",
      "name:en": "Jonathan's"
    }
  },
  "amenity/restaurant|ジョリーパスタ": {
    "count": 98,
    "countryCodes": ["jp"],
    "tags": {
      "amenity": "restaurant",
      "brand": "ジョリーパスタ",
      "brand:en": "Jolly-Pasta",
      "brand:wikidata": "Q10852718",
      "brand:wikipedia": "ja:ジョリーパスタ",
      "name": "ジョリーパスタ",
      "name:en": "Jolly-Pasta"
    }
  },
  "amenity/restaurant|ステーキガスト": {
    "count": 52,
    "countryCodes": ["jp"],
    "tags": {
      "amenity": "restaurant",
      "name": "ステーキガスト"
    }
  },
  "amenity/restaurant|デニーズ": {
    "count": 231,
    "countryCodes": ["jp"],
    "tags": {
      "amenity": "restaurant",
      "brand": "デニーズ",
      "brand:en": "Denny's",
      "brand:wikidata": "Q11320661",
      "brand:wikipedia": "ja:デニーズ (日本)",
      "name": "デニーズ",
      "name:en": "Denny's"
    }
  },
  "amenity/restaurant|バーミヤン": {
    "count": 174,
    "countryCodes": ["jp"],
    "tags": {
      "amenity": "restaurant",
      "brand": "バーミヤン",
      "brand:en": "Bamiyan",
      "brand:wikidata": "Q11328598",
      "brand:wikipedia": "ja:バーミヤン (レストランチェーン)",
      "name": "バーミヤン",
      "name:en": "Bamiyan"
    }
  },
  "amenity/restaurant|ビッグボーイ": {
    "count": 61,
    "countryCodes": ["jp"],
    "tags": {
      "amenity": "restaurant",
      "brand": "ビッグボーイ",
      "brand:en": "Big Boy Restaurants",
      "brand:wikidata": "Q4386779",
      "brand:wikipedia": "en:Big Boy Restaurants",
      "name": "ビッグボーイ",
      "name:en": "Big Boy Restaurants"
    }
  },
  "amenity/restaurant|リンガーハット": {
    "count": 82,
    "countryCodes": ["jp"],
    "tags": {
      "amenity": "restaurant",
      "brand": "リンガーハット",
      "brand:en": "Ringer Hut",
      "brand:wikidata": "Q7334856",
      "brand:wikipedia": "en:Ringer Hut",
      "name": "リンガーハット",
      "name:en": "Ringer Hut"
    }
  },
  "amenity/restaurant|ロイヤルホスト": {
    "count": 132,
    "countryCodes": ["jp"],
    "tags": {
      "amenity": "restaurant",
      "brand": "ロイヤルホスト",
      "brand:en": "Royal Host",
      "brand:wikidata": "Q11120884",
      "brand:wikipedia": "ja:ロイヤルホスト",
      "name": "ロイヤルホスト",
      "name:en": "Royal Host"
    }
  },
  "amenity/restaurant|丸亀製麺": {
    "count": 149,
    "countryCodes": ["jp"],
    "match": ["amenity/fast_food|丸亀製麺"],
    "tags": {
      "amenity": "restaurant",
      "brand": "丸亀製麺",
      "brand:en": "Marugame Seimen",
      "brand:wikidata": "Q10877253",
      "brand:wikipedia": "ja:丸亀製麺",
      "cuisine": "noodle",
      "name": "丸亀製麺",
      "name:en": "Marugame Seimen",
      "name:ko": "마루가메 제면"
    }
  },
  "amenity/restaurant|八方雲集": {
    "count": 218,
    "tags": {
      "amenity": "restaurant",
      "brand": "八方雲集",
      "brand:wikidata": "Q28417381",
      "brand:wikipedia": "zh:八方雲集",
      "name": "八方雲集"
    }
  },
  "amenity/restaurant|和食さと": {
    "count": 54,
    "countryCodes": ["jp"],
    "match": ["amenity/restaurant|さと"],
    "tags": {
      "amenity": "restaurant",
      "brand": "和食さと",
      "brand:en": "Washoku Sato",
      "brand:wikidata": "Q11304897",
      "brand:wikipedia": "ja:SRSホールディングス",
      "name": "和食さと",
      "name:en": "Washoku Sato"
    }
  },
  "amenity/restaurant|夢庵": {
    "count": 86,
    "countryCodes": ["jp"],
    "tags": {
      "amenity": "restaurant",
      "brand": "夢庵",
      "brand:en": "Yumean",
      "brand:wikidata": "Q11253593",
      "brand:wikipedia": "ja:すかいらーく",
      "name": "夢庵",
      "name:en": "Yumean"
    }
  },
  "amenity/restaurant|大戸屋": {
    "count": 96,
    "tags": {
      "amenity": "restaurant",
      "brand": "大戸屋",
      "brand:en": "Ootoya",
      "brand:wikidata": "Q11435522",
      "brand:wikipedia": "ja:大戸屋ホールディングス",
      "cuisine": "japanese",
      "name": "大戸屋",
      "name:en": "Ootoya"
    }
  },
  "amenity/restaurant|大阪王将": {
    "count": 89,
    "tags": {
      "amenity": "restaurant",
      "brand": "大阪王将",
      "brand:en": "Osaka Ohsho",
      "brand:wikidata": "Q48743717",
      "brand:wikipedia": "ja:大阪王将",
      "name": "大阪王将",
      "name:en": "Osaka Ohsho"
    }
  },
  "amenity/restaurant|天下一品": {
    "count": 87,
    "tags": {
      "amenity": "restaurant",
      "brand": "天下一品",
      "brand:en": "Tenkaippin",
      "brand:wikidata": "Q11442172",
      "brand:wikipedia": "en:Tenkaippin",
      "name": "天下一品",
      "name:en": "Tenkaippin"
    }
  },
  "amenity/restaurant|安楽亭": {
    "count": 70,
    "tags": {
      "amenity": "restaurant",
      "brand": "安楽亭",
      "brand:en": "Anrakutei",
      "brand:wikidata": "Q11450866",
      "brand:wikipedia": "ja:安楽亭",
      "cuisine": "barbecue",
      "name": "安楽亭",
      "name:en": "Anrakutei"
    }
  },
  "amenity/restaurant|日高屋": {
    "count": 78,
    "tags": {
      "amenity": "restaurant",
      "brand": "日高屋",
      "brand:en": "Hidakaya",
      "brand:wikidata": "Q11326050",
      "brand:wikipedia": "ja:ハイデイ日高",
      "cuisine": "noodle",
      "name": "日高屋",
      "name:en": "Hidakaya"
    }
  },
  "amenity/restaurant|永和豆漿": {
    "count": 58,
    "tags": {
      "amenity": "restaurant",
      "brand": "永和豆漿",
      "brand:wikidata": "Q11131335",
      "brand:wikipedia": "zh:永和豆浆",
      "name": "永和豆漿"
    }
  },
  "amenity/restaurant|牛角": {
    "count": 156,
    "tags": {
      "amenity": "restaurant",
      "brand": "牛角",
      "brand:en": "Gyū-Kaku",
      "brand:wikidata": "Q11349387",
      "brand:wikipedia": "en:Gyu-Kaku",
      "cuisine": "barbecue",
      "name": "牛角",
      "name:en": "Gyū-Kaku"
    }
  },
  "amenity/restaurant|華屋与兵衛": {
    "countryCodes": ["jp"],
    "nocount": true,
    "tags": {
      "amenity": "restaurant",
      "brand": "華屋与兵衛",
      "brand:en": "Hanaya Yohei",
      "brand:wikidata": "Q11276815",
      "brand:wikipedia": "ja:華屋与兵衛 (レストラン)",
      "cusine": "japanese",
      "name": "華屋与兵衛",
      "name:en": "Hanaya Yohei",
      "operator": "株式会社ゼンショーホールディングス",
      "operator:en": "Zensho Holdings Co., Ltd.",
      "operator:wikidata": "Q8069229",
      "operator:wikipedia": "ja:ゼンショー"
    }
  },
  "amenity/restaurant|餃子の王将": {
    "count": 269,
    "countryCodes": ["jp"],
    "tags": {
      "amenity": "restaurant",
      "brand": "餃子の王将",
      "brand:en": "Gyoza no Ohsho",
      "brand:wikidata": "Q11666805",
      "brand:wikipedia": "en:Gyoza no Ohsho",
      "name": "餃子の王将",
      "name:en": "Gyoza no Ohsho"
    }
  },
  "amenity/restaurant|바다횟집": {
    "count": 51,
    "countryCodes": ["kr"],
    "tags": {
      "amenity": "restaurant",
      "name": "바다횟집"
    }
  }
}